{"type": "FeatureCollection", "features": [ {"type": "Feature", "properties": {"norad_id": 51444, "name": "CSG-2", "group": "resource", "lat": 81.43276496113118, "lon": 94.07194107432157, "alt_km": 614.0360188261693, "timestamp": "2025-12-05T11:32:55.684298+00:00", "meta": {"OBJECT_NAME": "CSG-2", "OBJECT_ID": "2022-008A", "EPOCH": "2025-12-04T18:57:24.810336", "MEAN_MOTION": 14.82151731, "ECCENTRICITY": 0.0001507, "INCLINATION": 97.8807, "RA_OF_ASC_NODE": 160.2328, "ARG_OF_PERICENTER": 89.2709, "MEAN_ANOMALY": 270.8677, "EPHEMERIS_TYPE": 0, "CLASSIFICATION_TYPE": "U", "NORAD_CAT_ID": 51444, "ELEMENT_SET_NO": 999, "REV_AT_EPOCH": 20779, "BSTAR": 0.00014114, "MEAN_MOTION_DOT": 1.072e-05, "MEAN_MOTION_DDOT": 0}, "tle": {"line1": "1 51444U 22008A   25338.78987049  .00001072  00000+0  14114-3 0  9996", "line2": "2 51444  97.8807 160.2328 0001507  89.2709 270.8677 14.82151731207794"}}, "geometry": {"type": "Point", "coordinates": [94.07194107432157, 81.43276496113118]}}, {"type": "Feature", "properties": {"norad_id": 52912, "name": "GAOFEN-12 03", "group": "resource", "lat": 68.58825786255777, "lon": -153.5990377086679, "alt_km": 622.3621623290737, "timestamp": "2025-12-05T11:32:55.684308+00:00", "meta": {"OBJECT_NAME": "GAOFEN-12 03", "OBJECT_ID": "2022-069A", "EPOCH": "2025-12-04T17:22:47.430912", "MEAN_MOTION": 14.79579132, "ECCENTRICITY": 0.0002309, "INCLINATION": 97.8489, "RA_OF_ASC_NODE": 226.258, "ARG_OF_PERICENTER": 75.3825, "MEAN_ANOMALY": 284.7643, "EPHEMERIS_TYPE": 0, "CLASSIFICATION_TYPE": "U", "NORAD_CAT_ID": 52912, "ELEMENT_SET_NO": 999, "REV_AT_EPOCH": 18585, "BSTAR": 0.00034523, "MEAN_MOTION_DOT": 2.535e-05, "MEAN_MOTION_DDOT": 0}, "tle": {"line1": "1 52912U 22069A   25338.72416008  .00002535  00000+0  34523-3 0  9991", "line2": "2 52912  97.8489 226.2580 0002309  75.3825 284.7643 14.79579132185854"}}, "geometry": {"type": "Point", "coordinates": [-153.5990377086679, 68.58825786255777]}}, {"type": "Feature", "properties": {"norad_id": 54754, "name": "SWOT", "group": "resource", "lat": -43.733115429925995, "lon": -75.35137367269299, "alt_km": 899.9119458267269, "timestamp": "2025-12-05T11:32:55.684318+00:00", "meta": {"OBJECT_NAME": "SWOT", "OBJECT_ID": "2022-173A", "EPOCH": "2025-12-04T15:11:05.254080", "MEAN_MOTION": 14.00172854, "ECCENTRICITY": 3.31e-05, "INCLINATION": 77.6099, "RA_OF_ASC_NODE": 297.9341, "ARG_OF_PERICENTER": 136.9628, "MEAN_ANOMALY": 223.1549, "EPHEMERIS_TYPE": 0, "CLASSIFICATION_TYPE": "U", "NORAD_CAT_ID": 54754, "ELEMENT_SET_NO": 999, "REV_AT_EPOCH": 15192, "BSTAR": 0.00010701, "MEAN_MOTION_DOT": 1.55e-06, "MEAN_MOTION_DDOT": 0}, "tle": {"line1": "1 54754U 22173A   25338.63269970  .00000155  00000+0  10701-3 0  9995", "line2": "2 54754  77.6099 297.9341 0000331 136.9628 223.1549 14.00172854151928"}}, "geometry": {"type": "Point", "coordinates": [-75.35137367269299, -43.733115429925995]}}, {"type": "Feature", "properties": {"norad_id": 57654, "name": "GAOFEN-12 04", "group": "resource", "lat": -56.54929147569164, "lon": 63.19665558896292, "alt_km": 638.446059924262, "timestamp": "2025-12-05T11:32:55.684328+00:00", "meta": {"OBJECT_NAME": "GAOFEN-12 04", "OBJECT_ID": "2023-123A", "EPOCH": "2025-12-04T18:14:59.144928", "MEAN_MOTION": 14.79662915, "ECCENTRICITY": 0.0001453, "INCLINATION": 97.912, "RA_OF_ASC_NODE": 254.6388, "ARG_OF_PERICENTER": 73.1024, "MEAN_ANOMALY": 287.0347, "EPHEMERIS_TYPE": 0, "CLASSIFICATION_TYPE": "U", "NORAD_CAT_ID": 57654, "ELEMENT_SET_NO": 999, "REV_AT_EPOCH": 12387, "BSTAR": 0.00043563, "MEAN_MOTION_DOT": 3.218e-05, "MEAN_MOTION_DDOT": 0}, "tle": {"line1": "1 57654U 23123A   25338.76040677  .00003218  00000+0  43563-3 0  9993", "line2": "2 57654  97.9120 254.6388 0001453  73.1024 287.0347 14.79662915123875"}}, "geometry": {"type": "Point", "coordinates": [63.19665558896292, -56.54929147569164]}}, {"type": "Feature", "properties": {"norad_id": 59065, "name": "PARS 1", "group": "resource", "lat": 60.80026962145694, "lon": 143.82622247283385, "alt_km": 430.2090713731386, "timestamp": "2025-12-05T11:32:55.684338+00:00", "meta": {"OBJECT_NAME": "PARS 1", "OBJECT_ID": "2024-039Q", "EPOCH": "2025-12-04T17:53:32.089056", "MEAN_MOTION": 15.40706408, "ECCENTRICITY": 0.0012702, "INCLINATION": 97.4622, "RA_OF_ASC_NODE": 309.5112, "ARG_OF_PERICENTER": 95.827, "MEAN_ANOMALY": 264.4425, "EPHEMERIS_TYPE": 0, "CLASSIFICATION_TYPE": "U", "NORAD_CAT_ID": 59065, "ELEMENT_SET_NO": 999, "REV_AT_EPOCH": 9865, "BSTAR": 0.0005239, "MEAN_MOTION_DOT": 0.00021399, "MEAN_MOTION_DDOT": 0}, "tle": {"line1": "1 59065U 24039Q   25338.74551029  .00021399  00000+0  52390-3 0  9992", "line2": "2 59065  97.4622 309.5112 0012702  95.8270 264.4425 15.40706408 98651"}}, "geometry": {"type": "Point", "coordinates": [143.82622247283385, 60.80026962145694]}}, {"type": "Feature", "properties": {"norad_id": 59371, "name": "RESURS-P 4", "group": "resource", "lat": 49.09189620624676, "lon": 114.41316915012612, "alt_km": 465.1713812491553, "timestamp": "2025-12-05T11:32:55.684348+00:00", "meta": {"OBJECT_NAME": "RESURS-P 4", "OBJECT_ID": "2024-061A", "EPOCH": "2025-12-04T17:44:18.761856", "MEAN_MOTION": 15.31988553, "ECCENTRICITY": 0.0002066, "INCLINATION": 97.2535, "RA_OF_ASC_NODE": 285.2336, "ARG_OF_PERICENTER": 55.0308, "MEAN_ANOMALY": 305.1128, "EPHEMERIS_TYPE": 0, "CLASSIFICATION_TYPE": "U", "NORAD_CAT_ID": 59371, "ELEMENT_SET_NO": 999, "REV_AT_EPOCH": 9398, "BSTAR": 0.00026402, "MEAN_MOTION_DOT": 8.08e-05, "MEAN_MOTION_DDOT": 0}, "tle": {"line1": "1 59371U 24061A   25338.73910604  .00008080  00000+0  26402-3 0  9991", "line2": "2 59371  97.2535 285.2336 0002066  55.0308 305.1128 15.31988553 93989"}}, "geometry": {"type": "Point", "coordinates": [114.41316915012612, 49.09189620624676]}}, {"type": "Feature", "properties": {"norad_id": 59625, "name": "LEGION 1", "group": "resource", "lat": 42.110491964843, "lon": 47.321925173450886, "alt_km": 511.6145948081348, "timestamp": "2025-12-05T11:32:55.684358+00:00", "meta": {"OBJECT_NAME": "LEGION 1", "OBJECT_ID": "2024-081A", "EPOCH": "2025-12-04T16:21:25.378272", "MEAN_MOTION": 15.16357945, "ECCENTRICITY": 0.0004601, "INCLINATION": 97.5231, "RA_OF_ASC_NODE": 53.3897, "ARG_OF_PERICENTER": 350.433, "MEAN_ANOMALY": 9.6814, "EPHEMERIS_TYPE": 0, "CLASSIFICATION_TYPE": "U", "NORAD_CAT_ID": 59625, "ELEMENT_SET_NO": 999, "REV_AT_EPOCH": 8805, "BSTAR": 0.00059166, "MEAN_MOTION_DOT": 0.00011424, "MEAN_MOTION_DDOT": 0}, "tle": {"line1": "1 59625U 24081A   25338.68154373  .00011424  00000+0  59166-3 0  9991", "line2": "2 59625  97.5231  53.3897 0004601 350.4330   9.6814 15.16357945 88055"}}, "geometry": {"type": "Point", "coordinates": [47.321925173450886, 42.110491964843]}}, {"type": "Feature", "properties": {"norad_id": 59626, "name": "LEGION 2", "group": "resource", "lat": -41.63927186507143, "lon": -132.47823026656712, "alt_km": 524.2735067532003, "timestamp": "2025-12-05T11:32:55.684369+00:00", "meta": {"OBJECT_NAME": "LEGION 2", "OBJECT_ID": "2024-081B", "EPOCH": "2025-12-04T15:34:03.277056", "MEAN_MOTION": 15.16366639, "ECCENTRICITY": 0.000615, "INCLINATION": 97.5231, "RA_OF_ASC_NODE": 53.4438, "ARG_OF_PERICENTER": 326.475, "MEAN_ANOMALY": 33.6093, "EPHEMERIS_TYPE": 0, "CLASSIFICATION_TYPE": "U", "NORAD_CAT_ID": 59626, "ELEMENT_SET_NO": 999, "REV_AT_EPOCH": 8805, "BSTAR": 0.00056555, "MEAN_MOTION_DOT": 0.00010921, "MEAN_MOTION_DDOT": 0}, "tle": {"line1": "1 59626U 24081B   25338.64864904  .00010921  00000+0  56555-3 0  9996", "line2": "2 59626  97.5231  53.4438 0006150 326.4750  33.6093 15.16366639 88054"}}, "geometry": {"type": "Point", "coordinates": [-132.47823026656712, -41.63927186507143]}}, {"type": "Feature", "properties": {"norad_id": 60182, "name": "ALOS-4 (DAICHI-4)", "group": "resource", "lat": 55.56864790707436, "lon": -93.84746224627332, "alt_km": 624.8656336732965, "timestamp": "2025-12-05T11:32:55.684378+00:00", "meta": {"OBJECT_NAME": "ALOS-4 (DAICHI-4)", "OBJECT_ID": "2024-123A", "EPOCH": "2025-12-04T18:45:38.085984", "MEAN_MOTION": 14.79481167, "ECCENTRICITY": 0.0001307, "INCLINATION": 97.9229, "RA_OF_ASC_NODE": 73.7419, "ARG_OF_PERICENTER": 98.3079, "MEAN_ANOMALY": 261.8281, "EPHEMERIS_TYPE": 0, "CLASSIFICATION_TYPE": "U", "NORAD_CAT_ID": 60182, "ELEMENT_SET_NO": 999, "REV_AT_EPOCH": 7713, "BSTAR": -1.2774e-05, "MEAN_MOTION_DOT": -1.47e-06, "MEAN_MOTION_DDOT": 0}, "tle": {"line1": "1 60182U 24123A   25338.78169081 -.00000147  00000+0 -12774-4 0  9998", "line2": "2 60182  97.9229  73.7419 0001307  98.3079 261.8281 14.79481167 77139"}}, "geometry": {"type": "Point", "coordinates": [-93.84746224627332, 55.56864790707436]}}, {"type": "Feature", "properties": {"norad_id": 60452, "name": "LEGION 3", "group": "resource", "lat": -29.06161570906934, "lon": -157.17778020604044, "alt_km": 517.9234835097222, "timestamp": "2025-12-05T11:32:55.684389+00:00", "meta": {"OBJECT_NAME": "LEGION 3", "OBJECT_ID": "2024-146A", "EPOCH": "2025-12-04T12:25:22.660896", "MEAN_MOTION": 15.15626149, "ECCENTRICITY": 0.0013903, "INCLINATION": 45.0023, "RA_OF_ASC_NODE": 354.2057, "ARG_OF_PERICENTER": 152.227, "MEAN_ANOMALY": 207.9353, "EPHEMERIS_TYPE": 0, "CLASSIFICATION_TYPE": "U", "NORAD_CAT_ID": 60452, "ELEMENT_SET_NO": 999, "REV_AT_EPOCH": 7248, "BSTAR": 0.00060584, "MEAN_MOTION_DOT": 0.00011489, "MEAN_MOTION_DDOT": 0}, "tle": {"line1": "1 60452U 24146A   25338.51762339  .00011489  00000+0  60584-3 0  9999", "line2": "2 60452  45.0023 354.2057 0013903 152.2270 207.9353 15.15626149 72484"}}, "geometry": {"type": "Point", "coordinates": [-157.17778020604044, -29.06161570906934]}}]}